NORAD_CAT_ID,OBJECT_NAME,OBJECT_TYPE,EPOCH,MEAN_MOTION,ECCENTRICITY,INCLINATION,RA_OF_ASC_NODE,ARG_OF_PERICENTER,MEAN_ANOMALY,BSTAR,MEAN_MOTION_DOT,MEAN_MOTION_DDOT,TLE_LINE0,TLE_LINE1,TLE_LINE2,SEMIMAJOR_AXIS,PERIOD,APOGEE,PERIGEE,DECAYED
52548.0,STARLINK-3931,PAYLOAD,2024-05-01 11:40:18,15.08839471,0.0001372,53.2167,289.2024,92.2247,267.8902,0.00032541,4.895e-05,0.0,0 STARLINK-3931,1 52548U 22051R   24122.48632044  .00004895  00000-0  32541-3 0  9990,2 52548  53.2167 289.2024 0001372  92.2247 267.8902 15.08839471109286,6917.882,95.438,540.696,538.798,0.0
52548.0,STARLINK-3931,PAYLOAD,2024-05-01 18:01:50,15.08849462,0.0001095,53.2175,288.0159,87.8288,272.283,0.00021681,3.165e-05,0.0,0 STARLINK-3931,1 52548U 22051R   24122.75127357  .00003165  00000-0  21681-3 0  9998,2 52548  53.2175 288.0159 0001095  87.8288 272.2830 15.08849462109324,6917.851,95.437,540.474,538.959,0.0
52548.0,STARLINK-3931,PAYLOAD,2024-05-02 09:55:41,15.08836632,0.0001598,53.217,285.0406,86.5294,273.5881,-2.0888e-05,-6.2e-06,0.0,0 STARLINK-3931,1 52548U 22051R   24123.41368031 -.00000620  00000-0 -20888-4 0  9992,2 52548  53.2170 285.0406 0001598  86.5294 273.5881 15.08836632109428,6917.891,95.438,540.861,538.65,0.0
52548.0,STARLINK-3931,PAYLOAD,2024-05-02 14:41:51,15.08833153,0.0001209,53.216,284.1515,88.9162,271.1968,-0.00015586,-2.767e-05,0.0,0 STARLINK-3931,1 52548U 22051R   24123.61240172 -.00002767  00000-0 -15586-3 0  9991,2 52548  53.2160 284.1515 0001209  88.9162 271.1968 15.08833153109387,6917.901,95.438,540.603,538.93,0.0
52548.0,STARLINK-3931,PAYLOAD,2024-05-03 14:32:38,15.08841609,0.0001483,53.2194,279.6895,92.4023,267.7139,2.4755e-05,1.06e-06,0.0,0 STARLINK-3931,1 52548U 22051R   24124.60600231  .00000106  00000-0  24755-4 0  9999,2 52548  53.2194 279.6895 0001483  92.4023 267.7139 15.08841609109537,6917.875,95.437,540.766,538.715,0.0
52548.0,STARLINK-3931,PAYLOAD,2024-05-03 20:54:10,15.08845261,9.67e-05,53.2178,278.4984,71.0343,289.0754,8.675e-05,1.093e-05,0.0,0 STARLINK-3931,1 52548U 22051R   24124.87095665  .00001093  00000-0  86750-4 0  9996,2 52548  53.2178 278.4984 0000967  71.0343 289.0754 15.08845261109649,6917.864,95.437,540.398,539.06,0.0
52548.0,STARLINK-3931,PAYLOAD,2024-05-04 03:15:43,15.08833533,0.000143,53.2158,277.3061,83.5261,276.5894,0.0001002,1.307e-05,0.0,0 STARLINK-3931,1 52548U 22051R   24125.13592417  .00001307  00000-0  10020-3 0  9997,2 52548  53.2158 277.3061 0001430  83.5261 276.5894 15.08833533109683,6917.9,95.438,540.754,538.776,0.0
52548.0,STARLINK-3931,PAYLOAD,2024-05-05 09:28:03,15.08844778,0.0001305,53.2182,271.6594,85.2627,274.8514,0.00016478,2.336e-05,0.0,0 STARLINK-3931,1 52548U 22051R   24126.39448337  .00002336  00000-0  16478-3 0  9993,2 52548  53.2182 271.6594 0001305  85.2627 274.8514 15.08844778109878,6917.866,95.437,540.634,538.828,0.0
52548.0,STARLINK-3931,PAYLOAD,2024-05-05 14:14:12,15.0884904,0.0001282,53.2171,270.7674,83.1602,276.9536,0.0002572,3.809e-05,0.0,0 STARLINK-3931,1 52548U 22051R   24126.59320153  .00003809  00000-0  25720-3 0  9996,2 52548  53.2171 270.7674 0001282  83.1602 276.9536 15.08849040109839,6917.853,95.437,540.605,538.831,0.0
52548.0,STARLINK-3931,PAYLOAD,2024-05-05 17:24:58,15.08857332,0.0001271,53.2171,270.1726,83.1873,276.9264,0.00030912,4.637e-05,0.0,0 STARLINK-3931,1 52548U 22051R   24126.72567770  .00004637  00000-0  30912-3 0  9998,2 52548  53.2171 270.1726 0001271  83.1873 276.9264 15.08857332109920,6917.827,95.436,540.572,538.813,0.0
52548.0,STARLINK-3931,PAYLOAD,2024-05-06 02:57:17,15.08853331,0.0001298,53.2171,268.3905,79.6047,280.5092,0.00024902,3.679e-05,0.0,0 STARLINK-3931,1 52548U 22051R   24127.12311851  .00003679  00000-0  24902-3 0  9997,2 52548  53.2171 268.3905 0001298  79.6047 280.5092 15.08853331109981,6917.84,95.437,540.603,538.807,0.0
52548.0,STARLINK-3931,PAYLOAD,2024-05-06 09:18:50,15.08848553,0.0001305,53.2177,267.1993,96.4955,263.6186,0.00027995,4.171e-05,0.0,0 STARLINK-3931,1 52548U 22051R   24127.38808098  .00004171  00000-0  27995-3 0  9992,2 52548  53.2177 267.1993 0001305  96.4955 263.6186 15.08848553110028,6917.854,95.437,540.622,538.816,0.0
52548.0,STARLINK-3931,PAYLOAD,2024-05-06 14:04:59,15.08848418,0.0001643,53.2175,266.3095,79.4252,280.6925,0.00017477,2.495e-05,0.0,0 STARLINK-3931,1 52548U 22051R   24127.58680038  .00002495  00000-0  17477-3 0  9997,2 52548  53.2175 266.3095 0001643  79.4252 280.6925 15.08848418109989,6917.855,95.437,540.856,538.583,0.0
52548.0,STARLINK-3931,PAYLOAD,2024-05-06 15:40:22,15.08851542,0.0001384,53.2164,266.0095,96.16,263.955,0.00024015,3.537e-05,0.0,0 STARLINK-3931,1 52548U 22051R   24127.65303712  .00003537  00000-0  24015-3 0  9990,2 52548  53.2164 266.0095 0001384  96.1600 263.9550 15.08851542109990,6917.845,95.437,540.668,538.753,0.0
52548.0,STARLINK-3931,PAYLOAD,2024-05-07 12:20:25,15.08815208,0.0001377,53.2181,262.1436,88.4202,271.6948,-0.00030114,-5.074e-05,0.0,0 STARLINK-3931,1 52548U 22051R   24128.51418377 -.00005074  00000-0 -30114-3 0  9997,2 52548  53.2181 262.1436 0001377  88.4202 271.6948 15.08815208110199,6917.956,95.439,540.774,538.869,0.0
52548.0,STARLINK-3931,PAYLOAD,2024-05-07 13:55:47,15.08840187,0.0001182,53.2174,261.8482,87.1894,272.9233,8.209e-05,1.019e-05,0.0,0 STARLINK-3931,1 52548U 22051R   24128.58041194  .00001019  00000-0  82090-4 0  9997,2 52548  53.2174 261.8482 0001182  87.1894 272.9233 15.08840187110134,6917.88,95.438,540.563,538.927,0.0
52548.0,STARLINK-3931,PAYLOAD,2024-05-07 15:31:11,15.08838631,0.0001021,53.2175,261.5466,81.9911,278.1197,8.7563e-06,-1.48e-06,0.0,0 STARLINK-3931,1 52548U 22051R   24128.64665744 -.00000148  00000-0  87563-5 0  9991,2 52548  53.2175 261.5466 0001021  81.9911 278.1197 15.08838631110215,6917.885,95.438,540.456,539.043,0.0
52548.0,STARLINK-3931,PAYLOAD,2024-05-08 12:11:10,15.08855591,0.0001052,53.2158,257.6843,74.1883,285.9226,0.00040806,6.215e-05,0.0,0 STARLINK-3931,1 52548U 22051R   24129.50776399  .00006215  00000-0  40806-3 0  9993,2 52548  53.2158 257.6843 0001052  74.1883 285.9226 15.08855591110344,6917.833,95.437,540.425,538.97,0.0
52548.0,STARLINK-3931,PAYLOAD,2024-05-08 13:46:34,15.08858519,0.0001097,53.216,257.3866,74.267,285.8443,0.00064915,0.00010064,0.0,0 STARLINK-3931,1 52548U 22051R   24129.57400576  .00010064  00000-0  64915-3 0  9995,2 52548  53.2160 257.3866 0001097  74.2670 285.8443 15.08858519110289,6917.824,95.436,540.448,538.93,0.0
52548.0,STARLINK-3931,PAYLOAD,2024-05-08 15:21:57,15.08865275,0.0001138,53.2161,257.0889,74.3663,285.7455,0.00078173,0.00012184,0.0,0 STARLINK-3931,1 52548U 22051R   24129.64024317  .00012184  00000-0  78173-3 0  9994,2 52548  53.2161 257.0889 0001138  74.3663 285.7455 15.08865275110291,6917.803,95.436,540.455,538.881,0.0
52548.0,STARLINK-3931,PAYLOAD,2024-05-09 00:54:16,15.08858146,0.000107,53.2152,255.3033,56.2211,303.8883,0.00069955,0.00010868,0.0,0 STARLINK-3931,1 52548U 22051R   24130.03768694  .00010868  00000-0  69955-3 0  9997,2 52548  53.2152 255.3033 0001070  56.2211 303.8883 15.08858146110427,6917.825,95.436,540.43,538.95,0.0
52548.0,STARLINK-3931,PAYLOAD,2024-05-09 13:37:21,15.08848745,0.0001245,53.2176,252.9272,88.1898,271.9236,6.6407e-05,7.69e-06,0.0,0 STARLINK-3931,1 52548U 22051R   24130.56760771  .00000769  00000-0  66407-4 0  9992,2 52548  53.2176 252.9272 0001245  88.1898 271.9236 15.08848745110500,6917.854,95.437,540.58,538.857,0.0
52548.0,STARLINK-3931,PAYLOAD,2024-05-09 15:12:44,15.08854133,0.0001083,53.2168,252.6285,79.3427,280.7687,0.00019,2.738e-05,0.0,0 STARLINK-3931,1 52548U 22051R   24130.63384577  .00002738  00000-0  19000-3 0  9990,2 52548  53.2168 252.6285 0001083  79.3427 280.7687 15.08854133110441,6917.837,95.437,540.451,538.953,0.0
52548.0,STARLINK-3931,PAYLOAD,2024-05-10 15:03:31,15.08849632,0.0001088,53.2173,248.1709,86.5614,273.5503,7.7314e-05,9.43e-06,0.0,0 STARLINK-3931,1 52548U 22051R   24131.62744341  .00000943  00000-0  77314-4 0  9998,2 52548  53.2173 248.1709 0001088  86.5614 273.5503 15.08849632110592,6917.851,95.437,540.469,538.963,0.0
52548.0,STARLINK-3931,PAYLOAD,2024-05-10 16:38:54,15.08854009,0.0001123,53.2175,247.8719,74.364,285.7476,0.00018389,2.641e-05,0.0,0 STARLINK-3931,1 52548U 22051R   24131.69368218  .00002641  00000-0  18389-3 0  9993,2 52548  53.2175 247.8719 0001123  74.3640 285.7476 15.08854009110672,6917.838,95.437,540.479,538.926,0.0
52548.0,STARLINK-3931,PAYLOAD,2024-05-11 13:18:52,15.08957841,0.0001709,53.2167,244.0052,75.9187,284.1995,0.0037881,0.00060715,0.0,0 STARLINK-3931,1 52548U 22051R   24132.55477389  .00060715  00000-0  37881-2 0  9992,2 52548  53.2167 244.0052 0001709  75.9187 284.1995 15.08957841110807,6917.52,95.43,540.567,538.203,0.0
52548.0,STARLINK-3931,PAYLOAD,2024-05-11 16:29:39,15.08868062,0.0002056,53.2172,243.4134,68.7495,291.3717,-0.00042556,-7.06e-05,0.0,0 STARLINK-3931,1 52548U 22051R   24132.68726171 -.00007060  00000-0 -42556-3 0  9994,2 52548  53.2172 243.4134 0002056  68.7495 291.3717 15.08868062110825,6917.795,95.436,541.082,538.237,0.0
52548.0,STARLINK-3931,PAYLOAD,2024-05-12 00:26:38,15.08728144,0.0001225,53.2167,241.9244,94.7019,265.4113,-0.0046022,-0.00072571,0.0,0 STARLINK-3931,1 52548U 22051R   24133.01849604 -.00072571  00000-0 -46022-2 0  9999,2 52548  53.2167 241.9244 0001225  94.7019 265.4113 15.08728144110875,6918.222,95.445,540.935,539.24,0.0
52548.0,STARLINK-3931,PAYLOAD,2024-05-12 13:09:49,15.08632948,0.0001256,53.2159,239.5462,107.6119,252.5011,-0.0032773,-0.00051778,0.0,0 STARLINK-3931,1 52548U 22051R   24133.54849103 -.00051778  00000-0 -32773-2 0  9995,2 52548  53.2159 239.5462 0001256 107.6119 252.5011 15.08632948110959,6918.513,95.451,541.247,539.509,0.0
52548.0,STARLINK-3931,PAYLOAD,2024-05-12 14:45:13,15.08627155,0.0001248,53.2161,239.249,106.8683,253.2446,-0.0027085,-0.00042887,0.0,0 STARLINK-3931,1 52548U 22051R   24133.61474222 -.00042887  00000-0 -27085-2 0  9990,2 52548  53.2161 239.2490 0001248 106.8683 253.2446 15.08627155110895,6918.531,95.451,541.259,539.533,0.0
